start=new Date('2023-05-24T00:00:00.000Z').valueOf();
sats=[{"ECCENTRICITY":"0.00011020","OBJECT_NAME":"STARLINK-2130","PERIAPSIS":"546.430","SEMIMAJOR_AXIS":"6925.328","EPHEMERIS_TYPE":"0","PERIOD":"95.592","NORAD_CAT_ID":"47405","OBJECT_TYPE":"PAYLOAD","COUNTRY_CODE":"US","RCS_SIZE":"LARGE","CLASSIFICATION_TYPE":"U","FILE":"3915766","MEAN_MOTION_DOT":"0.00020130","MEAN_MOTION":"15.06406788","REF_FRAME":"TEME","DECAY_DATE":null,"MEAN_ELEMENT_THEORY":"SGP4","MEAN_ANOMALY":"259.3156","ARG_OF_PERICENTER":"100.7957","MEAN_MOTION_DDOT":"0.0000000000000","BSTAR":"0.00136620000000","GP_ID":"232401241","INCLINATION":"53.0549","REV_AT_EPOCH":"12918","OBJECT_ID":"2021-005BJ","TIME_SYSTEM":"UTC","EPOCH":"2023-05-23T22:09:30.121056","ELEMENT_SET_NO":"999","TLE_LINE1":"1 47405U 21005BJ  23143.92326529  .00020130  00000-0  13662-2 0  9995","LAUNCH_DATE":"2021-01-20","APOAPSIS":"547.956","SITE":"AFETR","TLE_LINE2":"2 47405  53.0549 324.0150 0001102 100.7957 259.3156 15.06406788129183","CENTER_NAME":"EARTH","RA_OF_ASC_NODE":"324.0150"},{"LAUNCH_DATE":"2021-01-20","TLE_LINE1":"1 47406U 21005BK  23143.81914647  .00015321  00000-0  10450-2 0  9996","RA_OF_ASC_NODE":"294.4829","SITE":"AFETR","APOAPSIS":"547.845","CENTER_NAME":"EARTH","TLE_LINE2":"2 47406  53.0549 294.4829 0000948 107.6668 252.4424 15.06408255129597","GP_ID":"232401993","BSTAR":"0.00104500000000","MEAN_MOTION_DDOT":"0.0000000000000","TIME_SYSTEM":"UTC","ELEMENT_SET_NO":"999","EPOCH":"2023-05-23T19:39:34.255008","OBJECT_ID":"2021-005BK","REV_AT_EPOCH":"12959","INCLINATION":"53.0549","MEAN_MOTION":"15.06408255","MEAN_MOTION_DOT":"0.00015321","REF_FRAME":"TEME","DECAY_DATE":null,"MEAN_ELEMENT_THEORY":"SGP4","FILE":"3915766","ARG_OF_PERICENTER":"107.6668","MEAN_ANOMALY":"252.4424","SEMIMAJOR_AXIS":"6925.323","ECCENTRICITY":"0.00009480","PERIAPSIS":"546.532","OBJECT_NAME":"STARLINK-2133","CLASSIFICATION_TYPE":"U","COUNTRY_CODE":"US","OBJECT_TYPE":"PAYLOAD","RCS_SIZE":"LARGE","EPHEMERIS_TYPE":"0","PERIOD":"95.592","NORAD_CAT_ID":"47406"},{"TLE_LINE1":"1 47407U 21005BL  23143.69381658  .00008385  00000-0  58120-3 0  9992","LAUNCH_DATE":"2021-01-20","TLE_LINE2":"2 47407  53.0537 295.0452 0001033  98.1639 261.9467 15.06394993129575","CENTER_NAME":"EARTH","APOAPSIS":"547.944","SITE":"AFETR","RA_OF_ASC_NODE":"295.0452","MEAN_MOTION_DDOT":"0.0000000000000","BSTAR":"0.00058120000000","GP_ID":"232402242","OBJECT_ID":"2021-005BL","REV_AT_EPOCH":"12957","INCLINATION":"53.0537","EPOCH":"2023-05-23T16:39:05.752512","ELEMENT_SET_NO":"999","TIME_SYSTEM":"UTC","FILE":"3915766","DECAY_DATE":null,"MEAN_ELEMENT_THEORY":"SGP4","MEAN_MOTION_DOT":"0.00008385","MEAN_MOTION":"15.06394993","REF_FRAME":"TEME","MEAN_ANOMALY":"261.9467","ARG_OF_PERICENTER":"98.1639","OBJECT_NAME":"STARLINK-2134","PERIAPSIS":"546.514","ECCENTRICITY":"0.00010330","SEMIMAJOR_AXIS":"6925.364","NORAD_CAT_ID":"47407","PERIOD":"95.592","EPHEMERIS_TYPE":"0","OBJECT_TYPE":"PAYLOAD","COUNTRY_CODE":"US","RCS_SIZE":"LARGE","CLASSIFICATION_TYPE":"U"},{"BSTAR":"0.00194140000000","GP_ID":"232400491","MEAN_MOTION_DDOT":"0.0000000000000","EPOCH":"2023-05-23T20:43:14.381760","ELEMENT_SET_NO":"999","TIME_SYSTEM":"UTC","REV_AT_EPOCH":"12960","INCLINATION":"53.0540","OBJECT_ID":"2021-005BM","LAUNCH_DATE":"2021-01-20","TLE_LINE1":"1 47408U 21005BM  23143.86336090  .00028742  00000-0  19414-2 0  9993","RA_OF_ASC_NODE":"294.2855","TLE_LINE2":"2 47408  53.0540 294.2855 0000860  79.7409 280.3677 15.06384121129609","CENTER_NAME":"EARTH","APOAPSIS":"547.858","SITE":"AFETR","SEMIMAJOR_AXIS":"6925.397","OBJECT_NAME":"STARLINK-2135","PERIAPSIS":"546.667","ECCENTRICITY":"0.00008600","RCS_SIZE":"LARGE","COUNTRY_CODE":"US","OBJECT_TYPE":"PAYLOAD","CLASSIFICATION_TYPE":"U","NORAD_CAT_ID":"47408","PERIOD":"95.593","EPHEMERIS_TYPE":"0","DECAY_DATE":null,"MEAN_ELEMENT_THEORY":"SGP4","MEAN_MOTION_DOT":"0.00028742","REF_FRAME":"TEME","MEAN_MOTION":"15.06384121","FILE":"3915766","ARG_OF_PERICENTER":"79.7409","MEAN_ANOMALY":"280.3677"},{"RCS_SIZE":"LARGE","COUNTRY_CODE":"US","OBJECT_TYPE":"PAYLOAD","CLASSIFICATION_TYPE":"U","PERIOD":"95.593","NORAD_CAT_ID":"47548","EPHEMERIS_TYPE":"0","SEMIMAJOR_AXIS":"6925.409","OBJECT_NAME":"STARLINK-1782","PERIAPSIS":"546.621","ECCENTRICITY":"0.00009430","ARG_OF_PERICENTER":"43.7016","MEAN_ANOMALY":"316.4047","DECAY_DATE":null,"MEAN_ELEMENT_THEORY":"SGP4","MEAN_MOTION_DOT":"0.00049990","MEAN_MOTION":"15.06380365","REF_FRAME":"TEME","FILE":"3915766","EPOCH":"2023-05-23T16:04:33.863232","ELEMENT_SET_NO":"999","TIME_SYSTEM":"UTC","INCLINATION":"53.0540","REV_AT_EPOCH":"12704","OBJECT_ID":"2021-009A","BSTAR":"0.00335300000000","GP_ID":"232401506","MEAN_MOTION_DDOT":"0.0000000000000","RA_OF_ASC_NODE":"275.1520","TLE_LINE2":"2 47548  53.0540 275.1520 0000943  43.7016 316.4047 15.06380365127042","CENTER_NAME":"EARTH","SITE":"AFETR","APOAPSIS":"547.927","LAUNCH_DATE":"2021-02-04","TLE_LINE1":"1 47548U 21009A   23143.66983638  .00049990  00000-0  33530-2 0  9999"},{"GP_ID":"232401755","BSTAR":"0.00094191000000","MEAN_MOTION_DDOT":"0.0000000000000","ELEMENT_SET_NO":"999","EPOCH":"2023-05-23T15:59:16.997280","TIME_SYSTEM":"UTC","OBJECT_ID":"2021-009B","INCLINATION":"53.0540","REV_AT_EPOCH":"12704","LAUNCH_DATE":"2021-02-04","TLE_LINE1":"1 47549U 21009B   23143.66616895  .00013774  00000-0  94191-3 0  9990","RA_OF_ASC_NODE":"275.1721","CENTER_NAME":"EARTH","TLE_LINE2":"2 47549  53.0540 275.1721 0001076  97.0010 263.1102 15.06394113127046","SITE":"AFETR","APOAPSIS":"547.977","SEMIMAJOR_AXIS":"6925.367","PERIAPSIS":"546.486","OBJECT_NAME":"STARLINK-1806","ECCENTRICITY":"0.00010760","CLASSIFICATION_TYPE":"U","COUNTRY_CODE":"US","OBJECT_TYPE":"PAYLOAD","RCS_SIZE":"LARGE","PERIOD":"95.593","NORAD_CAT_ID":"47549","EPHEMERIS_TYPE":"0","MEAN_ELEMENT_THEORY":"SGP4","DECAY_DATE":null,"MEAN_MOTION_DOT":"0.00013774","REF_FRAME":"TEME","MEAN_MOTION":"15.06394113","FILE":"3915766","ARG_OF_PERICENTER":"97.0010","MEAN_ANOMALY":"263.1102"},{"ECCENTRICITY":"0.00009580","PERIAPSIS":"546.541","OBJECT_NAME":"STARLINK-1909","SEMIMAJOR_AXIS":"6925.339","EPHEMERIS_TYPE":"0","NORAD_CAT_ID":"47550","PERIOD":"95.592","CLASSIFICATION_TYPE":"U","COUNTRY_CODE":"US","OBJECT_TYPE":"PAYLOAD","RCS_SIZE":"LARGE","FILE":"3915766","MEAN_MOTION":"15.06402959","MEAN_MOTION_DOT":"0.00013341","REF_FRAME":"TEME","DECAY_DATE":null,"MEAN_ELEMENT_THEORY":"SGP4","MEAN_ANOMALY":"270.3225","ARG_OF_PERICENTER":"89.7874","MEAN_MOTION_DDOT":"0.0000000000000","GP_ID":"232401005","BSTAR":"0.00091275000000","REV_AT_EPOCH":"12717","INCLINATION":"53.0546","OBJECT_ID":"2021-009C","TIME_SYSTEM":"UTC","ELEMENT_SET_NO":"999","EPOCH":"2023-05-23T14:41:00.772800","TLE_LINE1":"1 47550U 21009C   23143.61181450  .00013341  00000-0  91275-3 0  9991","LAUNCH_DATE":"2021-02-04","SITE":"AFETR","APOAPSIS":"547.868","CENTER_NAME":"EARTH","TLE_LINE2":"2 47550  53.0546 265.4169 0000958  89.7874 270.3225 15.06402959127174","RA_OF_ASC_NODE":"265.4169"},{"MEAN_MOTION_DDOT":"0.0000000000000","GP_ID":"232401255","BSTAR":"0.00035381000000","INCLINATION":"53.0562","OBJECT_ID":"2021-009D","REV_AT_EPOCH":"12690","TIME_SYSTEM":"UTC","ELEMENT_SET_NO":"999","EPOCH":"2023-05-23T16:08:34.325664","TLE_LINE1":"1 47551U 21009D   23143.67261951  .00004991  00000-0  35381-3 0  9990","LAUNCH_DATE":"2021-02-04","APOAPSIS":"547.748","SITE":"AFETR","CENTER_NAME":"EARTH","TLE_LINE2":"2 47551  53.0562 285.1430 0000729  89.3109 270.7963 15.06390207126901","RA_OF_ASC_NODE":"285.1430","ECCENTRICITY":"0.00007290","PERIAPSIS":"546.739","OBJECT_NAME":"STARLINK-1938","SEMIMAJOR_AXIS":"6925.379","EPHEMERIS_TYPE":"0","NORAD_CAT_ID":"47551","PERIOD":"95.593","CLASSIFICATION_TYPE":"U","RCS_SIZE":"LARGE","COUNTRY_CODE":"US","OBJECT_TYPE":"PAYLOAD","FILE":"3915766","MEAN_MOTION_DOT":"0.00004991","MEAN_MOTION":"15.06390207","REF_FRAME":"TEME","MEAN_ELEMENT_THEORY":"SGP4","DECAY_DATE":null,"MEAN_ANOMALY":"270.7963","ARG_OF_PERICENTER":"89.3109"},{"MEAN_ANOMALY":"266.2016","ARG_OF_PERICENTER":"93.9061","FILE":"3915766","MEAN_MOTION_DOT":"0.00012738","REF_FRAME":"TEME","MEAN_MOTION":"15.06412363","DECAY_DATE":null,"MEAN_ELEMENT_THEORY":"SGP4","EPHEMERIS_TYPE":"0","NORAD_CAT_ID":"47552","PERIOD":"95.591","COUNTRY_CODE":"US","OBJECT_TYPE":"PAYLOAD","RCS_SIZE":"LARGE","CLASSIFICATION_TYPE":"U","ECCENTRICITY":"0.00007690","OBJECT_NAME":"STARLINK-1940","PERIAPSIS":"546.643","SEMIMAJOR_AXIS":"6925.311","SITE":"AFETR","APOAPSIS":"547.708","TLE_LINE2":"2 47552  53.0537 275.1203 0000769  93.9061 266.2016 15.06412363127046","CENTER_NAME":"EARTH","RA_OF_ASC_NODE":"275.1203","TLE_LINE1":"1 47552U 21009E   23143.67723039  .00012738  00000-0  87217-3 0  9994","LAUNCH_DATE":"2021-02-04","INCLINATION":"53.0537","OBJECT_ID":"2021-009E","REV_AT_EPOCH":"12704","TIME_SYSTEM":"UTC","EPOCH":"2023-05-23T16:15:12.705696","ELEMENT_SET_NO":"999","MEAN_MOTION_DDOT":"0.0000000000000","BSTAR":"0.00087217000000","GP_ID":"232402007"},{"FILE":"3915766","DECAY_DATE":null,"MEAN_ELEMENT_THEORY":"SGP4","MEAN_MOTION_DOT":"0.00011905","REF_FRAME":"TEME","MEAN_MOTION":"15.06404247","MEAN_ANOMALY":"260.6165","ARG_OF_PERICENTER":"99.4932","OBJECT_NAME":"STARLINK-1953","PERIAPSIS":"546.541","ECCENTRICITY":"0.00009520","SEMIMAJOR_AXIS":"6925.336","NORAD_CAT_ID":"47554","PERIOD":"95.592","EPHEMERIS_TYPE":"0","COUNTRY_CODE":"US","OBJECT_TYPE":"PAYLOAD","RCS_SIZE":"LARGE","CLASSIFICATION_TYPE":"U","TLE_LINE1":"1 47554U 21009G   23143.81545525  .00011905  00000-0  81665-3 0  9990","LAUNCH_DATE":"2021-02-04","TLE_LINE2":"2 47554  53.0542 294.5011 0000952  99.4932 260.6165 15.06404247126783","CENTER_NAME":"EARTH","SITE":"AFETR","APOAPSIS":"547.860","RA_OF_ASC_NODE":"294.5011","MEAN_MOTION_DDOT":"0.0000000000000","BSTAR":"0.00081665000000","GP_ID":"232402256","INCLINATION":"53.0542","OBJECT_ID":"2021-009G","REV_AT_EPOCH":"12678","EPOCH":"2023-05-23T19:34:15.333600","ELEMENT_SET_NO":"999","TIME_SYSTEM":"UTC"}];
